start=new Date('2022-03-13T00:00:00.000Z').valueOf();
sats=[{"DECAY_DATE":null,"TIME_SYSTEM":"UTC","TLE_LINE1":"1 48027U 21024BC  22071.88784532 -.00001893  00000-0 -10822-3 0  9996","INCLINATION":"53.0576","COUNTRY_CODE":"US","OBJECT_TYPE":"PAYLOAD","CLASSIFICATION_TYPE":"U","TLE_LINE2":"2 48027  53.0576  15.9515 0001550  65.8272 294.2878 15.06396717 55124","PERIAPSIS":"546.150","LAUNCH_DATE":"2021-03-24","RCS_SIZE":"LARGE","RA_OF_ASC_NODE":"15.9515","MEAN_MOTION":"15.06396717","MEAN_ANOMALY":"294.2878","EPHEMERIS_TYPE":"0","MEAN_ELEMENT_THEORY":"SGP4","GP_ID":"198605712","MEAN_MOTION_DOT":"-0.00001893","OBJECT_NAME":"STARLINK-2300","FILE":"3356931","SEMIMAJOR_AXIS":"6925.359","ELEMENT_SET_NO":"999","REF_FRAME":"TEME","PERIOD":"95.592","OBJECT_ID":"2021-024BC","ARG_OF_PERICENTER":"65.8272","ECCENTRICITY":"0.00015500","CENTER_NAME":"EARTH","EPOCH":"2022-03-12T21:18:29.835648","NORAD_CAT_ID":"48027","APOAPSIS":"548.297","MEAN_MOTION_DDOT":"0.0000000000000","REV_AT_EPOCH":"5512","SITE":"AFETR","BSTAR":"-0.00010822000000"},{"APOAPSIS":"548.281","MEAN_MOTION_DDOT":"0.0000000000000","SITE":"AFETR","REV_AT_EPOCH":"360","BSTAR":"-0.00165050000000","ECCENTRICITY":"0.00015610","CENTER_NAME":"EARTH","NORAD_CAT_ID":"48028","EPOCH":"2022-03-12T22:00:00.999936","REF_FRAME":"TEME","ELEMENT_SET_NO":"999","PERIOD":"95.592","ARG_OF_PERICENTER":"59.3276","OBJECT_ID":"2021-024BD","MEAN_MOTION_DOT":"-0.00024784","OBJECT_NAME":"STARLINK-2264","SEMIMAJOR_AXIS":"6925.335","FILE":"3356931","EPHEMERIS_TYPE":"0","GP_ID":"198604460","MEAN_ELEMENT_THEORY":"SGP4","MEAN_ANOMALY":"29.9339","MEAN_MOTION":"15.06404342","TLE_LINE2":"2 48028  53.0544 330.8250 0001561  59.3276  29.9339 15.06404342  3604","CLASSIFICATION_TYPE":"U","PERIAPSIS":"546.119","LAUNCH_DATE":"2021-03-24","RA_OF_ASC_NODE":"330.8250","RCS_SIZE":"LARGE","DECAY_DATE":null,"TIME_SYSTEM":"UTC","TLE_LINE1":"1 48028U 21024BD  22071.91667824 -.00024784  00000-0 -16505-2 0  9992","OBJECT_TYPE":"PAYLOAD","INCLINATION":"53.0544","COUNTRY_CODE":"US"},{"MEAN_MOTION":"15.06418642","MEAN_ANOMALY":"308.3296","EPHEMERIS_TYPE":"0","GP_ID":"198604710","MEAN_ELEMENT_THEORY":"SGP4","TLE_LINE1":"1 48029U 21024BE  22071.92653162  .00004856  00000-0  34448-3 0  9997","INCLINATION":"53.0547","COUNTRY_CODE":"US","OBJECT_TYPE":"PAYLOAD","DECAY_DATE":null,"TIME_SYSTEM":"UTC","LAUNCH_DATE":"2021-03-24","RCS_SIZE":"LARGE","RA_OF_ASC_NODE":"35.7826","CLASSIFICATION_TYPE":"U","TLE_LINE2":"2 48029  53.0547  35.7826 0001939  51.7867 308.3296 15.06418642 54913","PERIAPSIS":"545.814","EPOCH":"2022-03-12T22:14:12.331968","NORAD_CAT_ID":"48029","CENTER_NAME":"EARTH","ECCENTRICITY":"0.00019390","REV_AT_EPOCH":"5491","SITE":"AFETR","BSTAR":"0.00034448000000","APOAPSIS":"548.499","MEAN_MOTION_DDOT":"0.0000000000000","OBJECT_NAME":"STARLINK-2299","SEMIMAJOR_AXIS":"6925.291","FILE":"3356931","MEAN_MOTION_DOT":"0.00004856","OBJECT_ID":"2021-024BE","ARG_OF_PERICENTER":"51.7867","ELEMENT_SET_NO":"999","REF_FRAME":"TEME","PERIOD":"95.591"},{"EPOCH":"2022-03-12T14:55:39.797760","NORAD_CAT_ID":"48030","CENTER_NAME":"EARTH","ECCENTRICITY":"0.00017810","BSTAR":"0.00022308000000","REV_AT_EPOCH":"5473","SITE":"AFETR","MEAN_MOTION_DDOT":"0.0000000000000","APOAPSIS":"548.420","SEMIMAJOR_AXIS":"6925.322","FILE":"3356931","OBJECT_NAME":"STARLINK-2268","MEAN_MOTION_DOT":"0.00003043","ARG_OF_PERICENTER":"57.9925","OBJECT_ID":"2021-024BF","PERIOD":"95.592","ELEMENT_SET_NO":"999","REF_FRAME":"TEME","MEAN_MOTION":"15.06408803","MEAN_ANOMALY":"302.1237","MEAN_ELEMENT_THEORY":"SGP4","GP_ID":"198605462","EPHEMERIS_TYPE":"0","COUNTRY_CODE":"US","INCLINATION":"53.0548","OBJECT_TYPE":"PAYLOAD","TLE_LINE1":"1 48030U 21024BF  22071.62198840  .00003043  00000-0  22308-3 0  9992","TIME_SYSTEM":"UTC","DECAY_DATE":null,"RCS_SIZE":"LARGE","RA_OF_ASC_NODE":"42.1254","LAUNCH_DATE":"2021-03-24","PERIAPSIS":"545.953","CLASSIFICATION_TYPE":"U","TLE_LINE2":"2 48030  53.0548  42.1254 0001781  57.9925 302.1237 15.06408803 54736"},{"MEAN_ANOMALY":"257.6294","MEAN_MOTION":"15.06394842","EPHEMERIS_TYPE":"0","GP_ID":"198605212","MEAN_ELEMENT_THEORY":"SGP4","TLE_LINE1":"1 48031U 21024BG  22071.91667824  .00013705  00000-0  93726-3 0  9996","OBJECT_TYPE":"PAYLOAD","INCLINATION":"53.0528","COUNTRY_CODE":"US","DECAY_DATE":null,"TIME_SYSTEM":"UTC","LAUNCH_DATE":"2021-03-24","RA_OF_ASC_NODE":"285.8057","RCS_SIZE":"LARGE","TLE_LINE2":"2 48031  53.0528 285.8057 0001981  53.9120 257.6294 15.06394842  3599","CLASSIFICATION_TYPE":"U","PERIAPSIS":"545.857","NORAD_CAT_ID":"48031","EPOCH":"2022-03-12T22:00:00.999936","ECCENTRICITY":"0.00019810","CENTER_NAME":"EARTH","SITE":"AFETR","REV_AT_EPOCH":"359","BSTAR":"0.00093726000000","APOAPSIS":"548.601","MEAN_MOTION_DDOT":"0.0000000000000","OBJECT_NAME":"STARLINK-2267","SEMIMAJOR_AXIS":"6925.364","FILE":"3356931","MEAN_MOTION_DOT":"0.00013705","ARG_OF_PERICENTER":"53.9120","OBJECT_ID":"2021-024BG","ELEMENT_SET_NO":"999","REF_FRAME":"TEME","PERIOD":"95.592"},{"MEAN_MOTION":"15.06417307","MEAN_ANOMALY":"304.2751","EPHEMERIS_TYPE":"0","MEAN_ELEMENT_THEORY":"SGP4","GP_ID":"198569615","TLE_LINE1":"1 48033U 21024BJ  22071.38470581  .00005139  00000-0  36348-3 0  9990","COUNTRY_CODE":"US","INCLINATION":"53.0629","OBJECT_TYPE":"PAYLOAD","DECAY_DATE":null,"TIME_SYSTEM":"UTC","LAUNCH_DATE":"2021-03-24","RCS_SIZE":"LARGE","RA_OF_ASC_NODE":"38.1534","CLASSIFICATION_TYPE":"U","TLE_LINE2":"2 48033  53.0629  38.1534 0001620  55.8392 304.2751 15.06417307 54836","PERIAPSIS":"546.039","EPOCH":"2022-03-12T09:13:58.581984","NORAD_CAT_ID":"48033","CENTER_NAME":"EARTH","ECCENTRICITY":"0.00016200","REV_AT_EPOCH":"5483","SITE":"AFETR","BSTAR":"0.00036348000000","APOAPSIS":"548.282","MEAN_MOTION_DDOT":"0.0000000000000","OBJECT_NAME":"STARLINK-2286","FILE":"3356520","SEMIMAJOR_AXIS":"6925.296","MEAN_MOTION_DOT":"0.00005139","OBJECT_ID":"2021-024BJ","ARG_OF_PERICENTER":"55.8392","ELEMENT_SET_NO":"999","REF_FRAME":"TEME","PERIOD":"95.591"},{"MEAN_MOTION_DDOT":"0.0000000000000","APOAPSIS":"548.897","BSTAR":"0.00014643000000","SITE":"AFETR","REV_AT_EPOCH":"5490","CENTER_NAME":"EARTH","ECCENTRICITY":"0.00025000","NORAD_CAT_ID":"48034","EPOCH":"2022-03-12T20:49:16.965408","PERIOD":"95.591","ELEMENT_SET_NO":"999","REF_FRAME":"TEME","ARG_OF_PERICENTER":"61.6594","OBJECT_ID":"2021-024BK","MEAN_MOTION_DOT":"0.00001901","SEMIMAJOR_AXIS":"6925.301","FILE":"3356931","OBJECT_NAME":"STARLINK-2288","GP_ID":"198604210","MEAN_ELEMENT_THEORY":"SGP4","EPHEMERIS_TYPE":"0","MEAN_ANOMALY":"298.4647","MEAN_MOTION":"15.06415559","PERIAPSIS":"545.435","TLE_LINE2":"2 48034  53.0545  36.0395 0002500  61.6594 298.4647 15.06415559 54906","CLASSIFICATION_TYPE":"U","RA_OF_ASC_NODE":"36.0395","RCS_SIZE":"LARGE","LAUNCH_DATE":"2021-03-24","TIME_SYSTEM":"UTC","DECAY_DATE":null,"OBJECT_TYPE":"PAYLOAD","INCLINATION":"53.0545","COUNTRY_CODE":"US","TLE_LINE1":"1 48034U 21024BK  22071.86755747  .00001901  00000-0  14643-3 0  9991"},{"MEAN_MOTION":"15.06412659","MEAN_ANOMALY":"317.6321","EPHEMERIS_TYPE":"0","GP_ID":"198604962","MEAN_ELEMENT_THEORY":"SGP4","TLE_LINE1":"1 48036U 21024BM  22071.87492943  .00001355  00000-0  10979-3 0  9991","INCLINATION":"53.0561","COUNTRY_CODE":"US","OBJECT_TYPE":"PAYLOAD","DECAY_DATE":null,"TIME_SYSTEM":"UTC","LAUNCH_DATE":"2021-03-24","RCS_SIZE":"LARGE","RA_OF_ASC_NODE":"36.0055","CLASSIFICATION_TYPE":"U","TLE_LINE2":"2 48036  53.0561  36.0055 0001902  42.4815 317.6321 15.06412659 54908","PERIAPSIS":"545.858","EPOCH":"2022-03-12T20:59:53.902752","NORAD_CAT_ID":"48036","ECCENTRICITY":"0.00019020","CENTER_NAME":"EARTH","REV_AT_EPOCH":"5490","SITE":"AFETR","BSTAR":"0.00010979000000","APOAPSIS":"548.492","MEAN_MOTION_DDOT":"0.0000000000000","OBJECT_NAME":"STARLINK-2295","FILE":"3356931","SEMIMAJOR_AXIS":"6925.310","MEAN_MOTION_DOT":"0.00001355","OBJECT_ID":"2021-024BM","ARG_OF_PERICENTER":"42.4815","ELEMENT_SET_NO":"999","REF_FRAME":"TEME","PERIOD":"95.591"},{"ELEMENT_SET_NO":"999","REF_FRAME":"TEME","PERIOD":"95.591","ARG_OF_PERICENTER":"82.7578","OBJECT_ID":"2021-027A","MEAN_MOTION_DOT":"0.00000861","OBJECT_NAME":"STARLINK-2048","SEMIMAJOR_AXIS":"6925.308","FILE":"3356931","APOAPSIS":"548.067","MEAN_MOTION_DDOT":"0.0000000000000","REV_AT_EPOCH":"5370","SITE":"AFETR","BSTAR":"0.00007665200000","ECCENTRICITY":"0.00012910","CENTER_NAME":"EARTH","EPOCH":"2022-03-12T15:42:04.249440","NORAD_CAT_ID":"48092","CLASSIFICATION_TYPE":"U","TLE_LINE2":"2 48092  53.0566 161.9941 0001291  82.7578 277.3558 15.06413252 53702","PERIAPSIS":"546.279","LAUNCH_DATE":"2021-04-07","RCS_SIZE":"LARGE","RA_OF_ASC_NODE":"161.9941","DECAY_DATE":null,"TIME_SYSTEM":"UTC","TLE_LINE1":"1 48092U 21027A   22071.65421585  .00000861  00000-0  76652-4 0  9998","COUNTRY_CODE":"US","INCLINATION":"53.0566","OBJECT_TYPE":"PAYLOAD","EPHEMERIS_TYPE":"0","GP_ID":"198604467","MEAN_ELEMENT_THEORY":"SGP4","MEAN_MOTION":"15.06413252","MEAN_ANOMALY":"277.3558"},{"PERIOD":"95.592","ELEMENT_SET_NO":"999","REF_FRAME":"TEME","OBJECT_ID":"2021-027B","ARG_OF_PERICENTER":"80.4735","MEAN_MOTION_DOT":"0.00001705","FILE":"3356931","SEMIMAJOR_AXIS":"6925.358","OBJECT_NAME":"STARLINK-2404","MEAN_MOTION_DDOT":"0.0000000000000","APOAPSIS":"548.033","BSTAR":"0.00013331000000","REV_AT_EPOCH":"5282","SITE":"AFETR","CENTER_NAME":"EARTH","ECCENTRICITY":"0.00011700","EPOCH":"2022-03-12T19:45:34.947360","NORAD_CAT_ID":"48093","PERIAPSIS":"546.412","CLASSIFICATION_TYPE":"U","TLE_LINE2":"2 48093  53.0524 226.2425 0001170  80.4735 279.6386 15.06397013 52827","RCS_SIZE":"LARGE","RA_OF_ASC_NODE":"226.2425","LAUNCH_DATE":"2021-04-07","TIME_SYSTEM":"UTC","DECAY_DATE":null,"INCLINATION":"53.0524","COUNTRY_CODE":"US","OBJECT_TYPE":"PAYLOAD","TLE_LINE1":"1 48093U 21027B   22071.82332115  .00001705  00000-0  13331-3 0  9990","MEAN_ELEMENT_THEORY":"SGP4","GP_ID":"198604717","EPHEMERIS_TYPE":"0","MEAN_MOTION":"15.06397013","MEAN_ANOMALY":"279.6386"}];
